ONEWEB-0045             
1 45151U 20008W   25279.47689588  .00000502  00000+0  13799-2 0  9993
2 45151  87.8817  71.5675 0001512  95.7792 264.3508 13.11417199277153
ONEWEB-0047             
1 45152U 20008X   25279.48948897 -.00000576  00000+0 -16857-2 0  9997
2 45152  87.8744  86.8516 0001544  88.8059 271.3245 13.10370176274975
ONEWEB-0048             
1 45153U 20008Y   25279.48453536 -.00000350  00000+0 -10383-2 0  9997
2 45153  87.8747  86.8783 0001592  92.3453 267.7856 13.10372837274586
ONEWEB-0049             
1 45154U 20008Z   25279.48700550 -.00000438  00000+0 -12921-2 0  9996
2 45154  87.8743  86.8694 0001921  78.1855 281.9488 13.10370763274808
ONEWEB-0051             
1 45155U 20008AA  25279.47519172  .00000062  00000+0  13942-3 0  9990
2 45155  87.8800  71.6025 0001629  95.4891 264.6423 13.11417656277837
ONEWEB-0052             
1 45156U 20008AB  25279.48202896 -.00000230  00000+0 -69512-3 0  9997
2 45156  87.8754  86.8236 0001961  75.9554 284.1791 13.10370174274717
ONEWEB-0053             
1 45157U 20008AC  25279.46461565  .00000600  00000+0  16818-2 0  9995
2 45157  87.8743  86.8783 0001312  88.8041 271.3236 13.10371732274686
ONEWEB-0054             
1 45158U 20008AD  25279.49945178 -.00000722  00000+0 -21062-2 0  9990
2 45158  87.8743  86.8442 0001686  90.1406 269.9914 13.10373375274809
